{
    "links": {
        "self": "http://www.neowsapp.com/rest/v1/neo/3735195?api_key=iIulBulltgU6a56xZRHN4H3l9WmuAYTsLGpBGhQ2"
    },
    "id": "3735195",
    "neo_reference_id": "3735195",
    "name": "(2015 VV142)",
    "designation": "2015 VV142",
    "nasa_jpl_url": "http://ssd.jpl.nasa.gov/sbdb.cgi?sstr=3735195",
    "absolute_magnitude_h": 26.9,
    "estimated_diameter": {
        "kilometers": {
            "estimated_diameter_min": 0.0110803882,
            "estimated_diameter_max": 0.0247765013
        },
        "meters": {
            "estimated_diameter_min": 11.0803882126,
            "estimated_diameter_max": 24.7765012606
        },
        "miles": {
            "estimated_diameter_min": 0.0068850319,
            "estimated_diameter_max": 0.0153953994
        },
        "feet": {
            "estimated_diameter_min": 36.3529808636,
            "estimated_diameter_max": 81.2877363957
        }
    },
    "is_potentially_hazardous_asteroid": false,
    "close_approach_data": [
        {
            "close_approach_date": "2015-11-20",
            "close_approach_date_full": "2015-Nov-20 10:34",
            "epoch_date_close_approach": 1448015640000,
            "relative_velocity": {
                "kilometers_per_second": "8.3939283643",
                "kilometers_per_hour": "30218.1421115093",
                "miles_per_hour": "18776.3783581209"
            },
            "miss_distance": {
                "astronomical": "0.0392313531",
                "lunar": "15.2609963559",
                "kilometers": "5868926.860977897",
                "miles": "3646782.0478810986"
            },
            "orbiting_body": "Earth"
        }
    ],
    "orbital_data": {
        "orbit_id": "5",
        "orbit_determination_date": "2017-04-06 08:30:35",
        "first_observation_date": "2015-11-14",
        "last_observation_date": "2015-11-20",
        "data_arc_in_days": 6,
        "observations_used": 20,
        "orbit_uncertainty": "8",
        "minimum_orbit_intersection": ".0350065",
        "jupiter_tisserand_invariant": "3.428",
        "epoch_osculation": "2457341.5",
        "eccentricity": ".5506386382119808",
        "semi_major_axis": "2.22041166543474",
        "inclination": "5.814223613323816",
        "ascending_node_longitude": "48.31317582283875",
        "orbital_period": "1208.505628309107",
        "perihelion_distance": ".9977672097097585",
        "perihelion_argument": "30.28747851574225",
        "aphelion_distance": "3.443056121159722",
        "perihelion_time": "2457363.566304247838",
        "mean_anomaly": "353.4267004280845",
        "mean_motion": ".2978885588672828",
        "equinox": "J2000",
        "orbit_class": {
            "orbit_class_type": "APO",
            "orbit_class_description": "Near-Earth asteroid orbits which cross the Earth’s orbit similar to that of 1862 Apollo",
            "orbit_class_range": "a (semi-major axis) > 1.0 AU; q (perihelion) < 1.017 AU"
        }
    },
    "is_sentry_object": false
}